$$SOE
2460154.500000000, A.D. 2023-Jul-29 00:00:00.0000, -1.189581148569634E+08, 3.757521320266495E+08, -2.789736170240341E+07,
2460161.500000000, A.D. 2023-Aug-05 00:00:00.0000, -1.283631989714018E+08, 3.723195450552291E+08, -2.830292400450228E+07,
2460168.500000000, A.D. 2023-Aug-12 00:00:00.0000, -1.376670555280907E+08, 3.685933214844837E+08, -2.868616285115410E+07,
2460175.500000000, A.D. 2023-Aug-19 00:00:00.0000, -1.468620739462872E+08, 3.645756592689040E+08, -2.904671831464015E+07,
2460182.500000000, A.D. 2023-Aug-26 00:00:00.0000, -1.559406407620551E+08, 3.602688740686371E+08, -2.938423675097065E+07,
2460189.500000000, A.D. 2023-Sep-02 00:00:00.0000, -1.648951362930604E+08, 3.556754025324070E+08, -2.969837076433814E+07,
2460196.500000000, A.D. 2023-Sep-09 00:00:00.0000, -1.737179314176967E+08, 3.507978058403509E+08, -2.998877921111406E+07,
2460203.500000000, A.D. 2023-Sep-16 00:00:00.0000, -1.824013843110791E+08, 3.456387734549172E+08, -3.025512726449597E+07,
2460210.500000000, A.D. 2023-Sep-23 00:00:00.0000, -1.909378367338850E+08, 3.402011273733991E+08, -3.049708655554737E+07,
2460217.500000000, A.D. 2023-Sep-30 00:00:00.0000, -1.993196102284014E+08, 3.344878280811743E+08, -3.071433526349334E+07,
2460224.500000000, A.D. 2023-Oct-07 00:00:00.0000, -2.075390045915184E+08, 3.285019816744813E+08, -3.090655798576251E+07,
2460231.500000000, A.D. 2023-Oct-14 00:00:00.0000, -2.155882975979147E+08, 3.222468448492699E+08, -3.107344575514853E+07,
2460238.500000000, A.D. 2023-Oct-21 00:00:00.0000, -2.234597427621756E+08, 3.157258293636086E+08, -3.121469636943564E+07,
2460245.500000000, A.D. 2023-Oct-28 00:00:00.0000, -2.311455665892876E+08, 3.089425082453679E+08, -3.133001472033906E+07,
2460252.500000000, A.D. 2023-Nov-04 00:00:00.0000, -2.386379665872483E+08, 3.019006229901358E+08, -3.141911307292183E+07,
2460259.500000000, A.D. 2023-Nov-11 00:00:00.0000, -2.459291098881370E+08, 2.946040911624212E+08, -3.148171136299406E+07,
2460266.500000000, A.D. 2023-Nov-18 00:00:00.0000, -2.530111322848719E+08, 2.870570143485810E+08, -3.151753754017165E+07,
2460273.500000000, A.D. 2023-Nov-25 00:00:00.0000, -2.598761376392401E+08, 2.792636864972457E+08, -3.152632796385434E+07,
2460280.500000000, A.D. 2023-Dec-02 00:00:00.0000, -2.665161976624663E+08, 2.712286026479879E+08, -3.150782785771951E+07,
2460287.500000000, A.D. 2023-Dec-09 00:00:00.0000, -2.729233520223681E+08, 2.629564679982276E+08, -3.146179183624667E+07,
2460294.500000000, A.D. 2023-Dec-16 00:00:00.0000, -2.790896085270016E+08, 2.544522073269050E+08, -3.138798453014877E+07,
2460301.500000000, A.D. 2023-Dec-23 00:00:00.0000, -2.850069430820240E+08, 2.457209754680026E+08, -3.128618128904179E+07,
2460308.500000000, A.D. 2023-Dec-30 00:00:00.0000, -2.906673008163525E+08, 2.367681698920857E+08, -3.115616875717576E+07,
2460315.500000000, A.D. 2024-Jan-06 00:00:00.0000, -2.960626002077431E+08, 2.275994430495663E+08, -3.099774535883857E+07,
2460322.500000000, A.D. 2024-Jan-13 00:00:00.0000, -3.011847370908898E+08, 2.182207126818398E+08, -3.081072213727529E+07,
2460329.500000000, A.D. 2024-Jan-20 00:00:00.0000, -3.060255873818529E+08, 2.086381731877749E+08, -3.059492381069391E+07,
2460336.500000000, A.D. 2024-Jan-27 00:00:00.0000, -3.105770106169950E+08, 1.988583086990527E+08, -3.035018981101258E+07,
2460343.500000000, A.D. 2024-Feb-03 00:00:00.0000, -3.148308548087635E+08, 1.888879069176893E+08, -3.007637534915199E+07,
2460350.500000000, A.D. 2024-Feb-10 00:00:00.0000, -3.187789624173653E+08, 1.787340734209118E+08, -2.977335256076088E+07,
2460357.500000000, A.D. 2024-Feb-17 00:00:00.0000, -3.224131773816032E+08, 1.684042464312993E+08, -2.944101174880078E+07,
2460364.500000000, A.D. 2024-Feb-24 00:00:00.0000, -3.257253532610316E+08, 1.579062120508445E+08, -2.907926272939050E+07,
2460371.500000000, A.D. 2024-Mar-02 00:00:00.0000, -3.287073625544076E+08, 1.472481199028004E+08, -2.868803629044363E+07,
2460378.500000000, A.D. 2024-Mar-09 00:00:00.0000, -3.313511071571196E+08, 1.364384990858733E+08, -2.826728578511272E+07,
2460385.500000000, A.D. 2024-Mar-16 00:00:00.0000, -3.336485296720260E+08, 1.254862745956572E+08, -2.781698888447773E+07,
2460392.500000000, A.D. 2024-Mar-23 00:00:00.0000, -3.355916257959226E+08, 1.144007852696298E+08, -2.733714939399964E+07,
2460399.500000000, A.D. 2024-Mar-30 00:00:00.0000, -3.371724601518704E+08, 1.031918031656550E+08, -2.682779893576935E+07,
2460406.500000000, A.D. 2024-Apr-06 00:00:00.0000, -3.383831854501152E+08, 9.186955093450241E+07, -2.628899880134748E+07,
2460413.500000000, A.D. 2024-Apr-13 00:00:00.0000, -3.392160615644526E+08, 8.044471793928954E+07, -2.572084223679238E+07,
2460420.500000000, A.D. 2024-Apr-20 00:00:00.0000, -3.396634756126436E+08, 6.892847769215886E+07, -2.512345685560068E+07,
2460427.500000000, A.D. 2024-Apr-27 00:00:00.0000, -3.397179647048706E+08, 5.733250591814641E+07, -2.449700708875243E+07,
2460434.500000000, A.D. 2024-May-04 00:00:00.0000, -3.393722414255860E+08, 4.566899839680061E+07, -2.384169673974838E+07,
2460441.500000000, A.D. 2024-May-11 00:00:00.0000, -3.386192219617859E+08, 3.395068831089251E+07, -2.315777167501250E+07,
2460448.500000000, A.D. 2024-May-18 00:00:00.0000, -3.374520569448909E+08, 2.219086292700277E+07, -2.244552265360983E+07,
2460455.500000000, A.D. 2024-May-25 00:00:00.0000, -3.358641651280826E+08, 1.040337937434541E+07, -2.170528829562761E+07,
2460462.500000000, A.D. 2024-Jun-01 00:00:00.0000, -3.338492699803626E+08, -1.397320793442057E+06, -2.093745819393416E+07,
2460469.500000000, A.D. 2024-Jun-08 00:00:00.0000, -3.314014390825293E+08, -1.319619856783554E+07, -2.014247618589056E+07,
2460476.500000000, A.D. 2024-Jun-15 00:00:00.0000, -3.285151260424734E+08, -2.497760576837209E+07, -1.932084376627309E+07,
2460483.500000000, A.D. 2024-Jun-22 00:00:00.0000, -3.251852160317443E+08, -3.672527382969876E+07, -1.847312343900152E+07,
2460490.500000000, A.D. 2024-Jun-29 00:00:00.0000, -3.214070771386602E+08, -4.842230532098260E+07, -1.759994194457302E+07,
2460497.500000000, A.D. 2024-Jul-06 00:00:00.0000, -3.171766149401529E+08, -6.005117111639861E+07, -1.670199378703818E+07,
2460504.500000000, A.D. 2024-Jul-13 00:00:00.0000, -3.124903283483602E+08, -7.159371087659225E+07, -1.578004498208347E+07,
2460511.500000000, A.D. 2024-Jul-20 00:00:00.0000, -3.073453686663395E+08, -8.303113621737219E+07, -1.483493671724988E+07,
2460518.500000000, A.D. 2024-Jul-27 00:00:00.0000, -3.017396024013405E+08, -9.434403809535226E+07, -1.386758890508786E+07,
2460525.500000000, A.D. 2024-Aug-03 00:00:00.0000, -2.956716773964292E+08, -1.055123993929873E+08, -1.287900364307614E+07,
2460532.500000000, A.D. 2024-Aug-10 00:00:00.0000, -2.891410918740341E+08, -1.165156133413642E+08, -1.187026854734182E+07,
2460539.500000000, A.D. 2024-Aug-17 00:00:00.0000, -2.821482660128593E+08, -1.273325084123624E+08, -1.084255990635953E+07,
2460546.500000000, A.D. 2024-Aug-24 00:00:00.0000, -2.746946155957865E+08, -1.379413803653339E+08, -9.797145594448306E+06,
2460553.500000000, A.D. 2024-Aug-31 00:00:00.0000, -2.667826270604558E+08, -1.483200321694484E+08, -8.735387687605187E+06,
2460560.500000000, A.D. 2024-Sep-07 00:00:00.0000, -2.584159329023236E+08, -1.584458223215361E+08, -7.658744724088743E+06,
2460567.500000000, A.D. 2024-Sep-14 00:00:00.0000, -2.495993865241829E+08, -1.682957211869427E+08, -6.568773450387634E+06,
2460574.500000000, A.D. 2024-Sep-21 00:00:00.0000, -2.403391376100261E+08, -1.778463755328589E+08, -5.467129744517371E+06,
2460581.500000000, A.D. 2024-Sep-28 00:00:00.0000, -2.306427074355163E+08, -1.870741849913910E+08, -4.355568845165864E+06,
2460588.500000000, A.D. 2024-Oct-05 00:00:00.0000, -2.205190592423965E+08, -1.959553908494201E+08, -3.235945128525123E+06,
2460595.500000000, A.D. 2024-Oct-12 00:00:00.0000, -2.099786626951495E+08, -2.044661744357177E+08, -2.110211057145432E+06,
2460602.500000000, A.D. 2024-Oct-19 00:00:00.0000, -1.990335526899146E+08, -2.125827654505683E+08, -9.804150623016506E+05,
2460609.500000000, A.D. 2024-Oct-26 00:00:00.0000, -1.876973809472727E+08, -2.202815609128828E+08, 1.513016734563857E+05,
2460616.500000000, A.D. 2024-Nov-02 00:00:00.0000, -1.759854584424584E+08, -2.275392545207793E+08, 1.282709584774971E+06,
2460623.500000000, A.D. 2024-Nov-09 00:00:00.0000, -1.639147868398932E+08, -2.343329757960597E+08, 2.411496311007932E+06,
2460630.500000000, A.D. 2024-Nov-16 00:00:00.0000, -1.515040771627745E+08, -2.406404381134170E+08, 3.535273561298653E+06,
2460637.500000000, A.D. 2024-Nov-23 00:00:00.0000, -1.387737539437555E+08, -2.464400944523327E+08, 4.651585291095749E+06,
2460644.500000000, A.D. 2024-Nov-30 00:00:00.0000, -1.257459430322857E+08, -2.517112993795772E+08, 5.757917186328426E+06,
2460651.500000000, A.D. 2024-Dec-07 00:00:00.0000, -1.124444411775228E+08, -2.564344749837856E+08, 6.851707442515984E+06,
2460658.500000000, A.D. 2024-Dec-14 00:00:00.0000, -9.889466683478770E+07, -2.605912773664707E+08, 7.930358962420791E+06,
2460665.500000000, A.D. 2024-Dec-21 00:00:00.0000, -8.512359356016232E+07, -2.641647624688720E+08, 8.991253009707287E+06,
2460672.500000000, A.D. 2024-Dec-28 00:00:00.0000, -7.115966341984214E+07, -2.671395514970983E+08, 1.003176378527410E+07,
2460679.500000000, A.D. 2025-Jan-04 00:00:00.0000, -5.703267763367751E+07, -2.695019906800865E+08, 1.104927373658980E+07,
2460686.500000000, A.D. 2025-Jan-11 00:00:00.0000, -4.277366655784508E+07, -2.712403006913744E+08, 1.204118972211374E+07,
2460693.500000000, A.D. 2025-Jan-18 00:00:00.0000, -2.841474070893458E+07, -2.723447136080790E+08, 1.300495982589558E+07,
2460700.500000000, A.D. 2025-Jan-25 00:00:00.0000, -1.398892389426294E+07, -2.728075948970774E+08, 1.393809051777247E+07,
2460707.500000000, A.D. 2025-Feb-01 00:00:00.0000, 4.700299103387758E+05, -2.726235476352187E+08, 1.483816387112486E+07,
2460714.500000000, A.D. 2025-Feb-08 00:00:00.0000, 1.492783366687840E+07, -2.717894963872140E+08, 1.570285454794878E+07,
$$EOE